TECHDEMOSAT-1 (TDS-1)   
1 40076U 14037H   26068.92236573  .00011104  00000+0  65800-3 0  9999
2 40076  98.3776  51.4583 0004745 234.8100 125.2683 15.11581991633227
STARLINK-3374           
1 51112U 22005J   26068.89502182  .00002188  00000+0  15547-3 0  9999
2 51112  53.2171 288.1695 0001355  94.1755 265.9393 15.08858561228911
